IRIDIUM 136             
1 42962U 17061H   23363.12336481  .00000362  00000+0  12220-3 0  9993
2 42962  86.3961  41.8056 0002379  95.5199 264.6268 14.34217903325683
